DIAMOND BLUE            
1 42786U 17036X   17345.67450215  .00001243  00000-0  59032-4 0  9997
2 42786  97.4287  43.2789 0012756  21.6220 338.5552 15.21040858 26073
